GLOBALSTAR M045         
1 25676U 99019A   25210.39227840 -.00000088  00000+0  50574-4 0  9990
2 25676  51.9943 184.9753 0000444 327.9741 154.3825 12.27064389198571
GLOBALSTAR M019         
1 25677U 99019B   25210.60133906 -.00000060  00000+0  31256-3 0  9999
2 25677  51.9904 317.7319 0001582  75.1152  35.3253 12.13875866190294
GLOBALSTAR M044         
1 25678U 99019C   25210.51626105 -.00000101  00000+0 -24685-3 0  9993
2 25678  51.9965 274.6263 0006391 124.6989 342.0457 11.90253985176364
GLOBALSTAR M042         
1 25679U 99019D   25210.52116240 -.00000079  00000+0  12185-3 0  9994
2 25679  52.0020 291.4471 0002849  36.7361  65.4521 12.22084770190430
GLOBALSTAR M025         
1 25770U 99031A   25210.36180461 -.00000057  00000+0  31958-3 0  9993
2 25770  51.9828  61.5708 0001156 202.6667 328.2236 11.22562278486443
GLOBALSTAR M049         
1 25771U 99031B   25210.41354901 -.00000001  00000+0  22283-2 0  9991
2 25771  51.9877  98.3377 0003461  70.8973 289.2198 11.12117785122127
GLOBALSTAR M047         
1 25772U 99031C   25210.00712302 -.00000047  00000+0  61906-3 0  9996
2 25772  51.9836  92.2324 0016714 337.0995  22.9064 11.31929196475847
GLOBALSTAR M052         
1 25773U 99031D   25210.47760522 -.00000044  00000+0  72220-3 0  9993
2 25773  51.9824 206.2708 0002862 248.8143 282.1986 11.15060119483228
